[{"OBJECT_NAME":"STARLINK-5613","OBJECT_ID":"2023-028M","EPOCH":"2026-03-09T21:22:37.147008","MEAN_MOTION":14.98327544,"ECCENTRICITY":0.00030565,"INCLINATION":69.9992,"RA_OF_ASC_NODE":243.8114,"ARG_OF_PERICENTER":271.3341,"MEAN_ANOMALY":88.7468,"EPHEMERIS_TYPE":0,"CLASSIFICATION_TYPE":"U","NORAD_CAT_ID":55752,"ELEMENT_SET_NO":999,"REV_AT_EPOCH":16607,"BSTAR":-2.2500598e-5,"MEAN_MOTION_DOT":-3.61e-6,"MEAN_MOTION_DDOT":0},{"OBJECT_NAME":"KORSAT-1","OBJECT_ID":"2024-066L","EPOCH":"2026-03-09T23:36:29.126880","MEAN_MOTION":14.99775855,"ECCENTRICITY":0.00103896,"INCLINATION":45.4118,"RA_OF_ASC_NODE":38.4763,"ARG_OF_PERICENTER":214.4294,"MEAN_ANOMALY":145.5913,"EPHEMERIS_TYPE":0,"CLASSIFICATION_TYPE":"U","NORAD_CAT_ID":59452,"ELEMENT_SET_NO":999,"REV_AT_EPOCH":10517,"BSTAR":0.00047970888,"MEAN_MOTION_DOT":5.797e-5,"MEAN_MOTION_DDOT":0}]
